start=new Date('2022-04-02T00:00:00.000Z').valueOf();
sats=[{"DECAY_DATE":null,"RCS_SIZE":"LARGE","ELEMENT_SET_NO":"999","REF_FRAME":"TEME","APOAPSIS":"548.162","SITE":"AFETR","MEAN_MOTION_DDOT":"0.0000000000000","GP_ID":"200262431","OBJECT_NAME":"STARLINK-1308","PERIAPSIS":"546.149","MEAN_MOTION_DOT":"0.00003985","ECCENTRICITY":"0.00014530","EPHEMERIS_TYPE":"0","ARG_OF_PERICENTER":"60.8355","EPOCH":"2022-04-01T20:25:55.914240","RA_OF_ASC_NODE":"141.3298","REV_AT_EPOCH":"11275","TLE_LINE2":"2 45419  53.0544 141.3298 0001453  60.8355 299.2779 15.06419021112754","MEAN_MOTION":"15.06419021","CENTER_NAME":"EARTH","TIME_SYSTEM":"UTC","LAUNCH_DATE":"2020-03-18","TLE_LINE1":"1 45419U 20019BM  22091.85134160  .00003985  00000-0  28610-3 0  9992","MEAN_ANOMALY":"299.2779","CLASSIFICATION_TYPE":"U","SEMIMAJOR_AXIS":"6925.290","MEAN_ELEMENT_THEORY":"SGP4","COUNTRY_CODE":"US","BSTAR":"0.00028610000000","INCLINATION":"53.0544","OBJECT_TYPE":"PAYLOAD","FILE":"3383778","PERIOD":"95.591","NORAD_CAT_ID":"45419","OBJECT_ID":"2020-019BM"},{"INCLINATION":"53.0557","MEAN_ELEMENT_THEORY":"SGP4","COUNTRY_CODE":"US","BSTAR":"0.00021707000000","NORAD_CAT_ID":"45531","OBJECT_ID":"2020-025A","OBJECT_TYPE":"PAYLOAD","FILE":"3383778","PERIOD":"95.592","CENTER_NAME":"EARTH","MEAN_MOTION":"15.06408140","TIME_SYSTEM":"UTC","LAUNCH_DATE":"2020-04-22","TLE_LINE1":"1 45531U 20025A   22091.75367096  .00002954  00000-0  21707-3 0  9994","TLE_LINE2":"2 45531  53.0557  81.7672 0001616  65.4224 294.6934 15.06408140108367","SEMIMAJOR_AXIS":"6925.324","MEAN_ANOMALY":"294.6934","CLASSIFICATION_TYPE":"U","GP_ID":"200260698","OBJECT_NAME":"STARLINK-1329","SITE":"AFETR","MEAN_MOTION_DDOT":"0.0000000000000","ECCENTRICITY":"0.00016160","EPHEMERIS_TYPE":"0","ARG_OF_PERICENTER":"65.4224","RA_OF_ASC_NODE":"81.7672","EPOCH":"2022-04-01T18:05:17.170944","REV_AT_EPOCH":"10836","PERIAPSIS":"546.069","MEAN_MOTION_DOT":"0.00002954","DECAY_DATE":null,"RCS_SIZE":"LARGE","ELEMENT_SET_NO":"999","APOAPSIS":"548.308","REF_FRAME":"TEME"},{"SITE":"AFETR","MEAN_MOTION_DDOT":"0.0000000000000","GP_ID":"200234127","OBJECT_NAME":"STARLINK-1338","MEAN_MOTION_DOT":"0.00007188","PERIAPSIS":"546.280","ECCENTRICITY":"0.00012930","EPHEMERIS_TYPE":"0","ARG_OF_PERICENTER":"80.1395","EPOCH":"2022-04-01T18:21:12.738528","RA_OF_ASC_NODE":"81.7144","REV_AT_EPOCH":"10778","DECAY_DATE":null,"RCS_SIZE":"LARGE","ELEMENT_SET_NO":"999","REF_FRAME":"TEME","APOAPSIS":"548.071","MEAN_ELEMENT_THEORY":"SGP4","COUNTRY_CODE":"US","BSTAR":"0.00050080000000","INCLINATION":"53.0534","OBJECT_TYPE":"PAYLOAD","FILE":"3383390","PERIOD":"95.591","NORAD_CAT_ID":"45532","OBJECT_ID":"2020-025B","TLE_LINE2":"2 45532  53.0534  81.7144 0001293  80.1395 279.9739 15.06412409107788","MEAN_MOTION":"15.06412409","CENTER_NAME":"EARTH","TIME_SYSTEM":"UTC","LAUNCH_DATE":"2020-04-22","TLE_LINE1":"1 45532U 20025B   22091.76473077  .00007188  00000-0  50080-3 0  9993","MEAN_ANOMALY":"279.9739","CLASSIFICATION_TYPE":"U","SEMIMAJOR_AXIS":"6925.311"},{"CLASSIFICATION_TYPE":"U","MEAN_ANOMALY":"282.7551","SEMIMAJOR_AXIS":"6828.140","TLE_LINE2":"2 45533  53.0490  59.0516 0005073  77.4019 282.7551 15.38682780108650","TLE_LINE1":"1 45533U 20025C   22091.42483815  .00070742  00000-0  18163-2 0  9999","LAUNCH_DATE":"2020-04-22","TIME_SYSTEM":"UTC","MEAN_MOTION":"15.38682780","CENTER_NAME":"EARTH","PERIOD":"93.587","FILE":"3383353","OBJECT_TYPE":"PAYLOAD","OBJECT_ID":"2020-025C","NORAD_CAT_ID":"45533","COUNTRY_CODE":"US","BSTAR":"0.00181630000000","MEAN_ELEMENT_THEORY":"SGP4","INCLINATION":"53.0490","REF_FRAME":"TEME","APOAPSIS":"453.469","ELEMENT_SET_NO":"999","RCS_SIZE":"LARGE","DECAY_DATE":null,"MEAN_MOTION_DOT":"0.00070742","PERIAPSIS":"446.542","REV_AT_EPOCH":"10865","RA_OF_ASC_NODE":"59.0516","EPOCH":"2022-04-01T10:11:46.016160","ARG_OF_PERICENTER":"77.4019","ECCENTRICITY":"0.00050730","EPHEMERIS_TYPE":"0","MEAN_MOTION_DDOT":"0.0000000000000","SITE":"AFETR","GP_ID":"200227903","OBJECT_NAME":"STARLINK-1339"},{"TLE_LINE2":"2 45534  53.0530  81.9589 0001787  55.7198 304.3960 15.06415504108350","TLE_LINE1":"1 45534U 20025D   22091.70943943  .00004767  00000-0  33855-3 0  9994","LAUNCH_DATE":"2020-04-22","TIME_SYSTEM":"UTC","CENTER_NAME":"EARTH","MEAN_MOTION":"15.06415504","CLASSIFICATION_TYPE":"U","MEAN_ANOMALY":"304.3960","SEMIMAJOR_AXIS":"6925.301","BSTAR":"0.00033855000000","COUNTRY_CODE":"US","MEAN_ELEMENT_THEORY":"SGP4","INCLINATION":"53.0530","PERIOD":"95.591","FILE":"3383778","OBJECT_TYPE":"PAYLOAD","OBJECT_ID":"2020-025D","NORAD_CAT_ID":"45534","ELEMENT_SET_NO":"999","RCS_SIZE":"LARGE","DECAY_DATE":null,"REF_FRAME":"TEME","APOAPSIS":"548.404","MEAN_MOTION_DDOT":"0.0000000000000","SITE":"AFETR","GP_ID":"200262443","OBJECT_NAME":"STARLINK-1341","PERIAPSIS":"545.928","MEAN_MOTION_DOT":"0.00004767","REV_AT_EPOCH":"10835","RA_OF_ASC_NODE":"81.9589","EPOCH":"2022-04-01T17:01:35.566752","ARG_OF_PERICENTER":"55.7198","EPHEMERIS_TYPE":"0","ECCENTRICITY":"0.00017870"},{"PERIAPSIS":"546.044","MEAN_MOTION_DOT":"0.00001325","REV_AT_EPOCH":"10831","EPOCH":"2022-04-01T09:30:26.089920","RA_OF_ASC_NODE":"83.3687","ARG_OF_PERICENTER":"61.6604","EPHEMERIS_TYPE":"0","ECCENTRICITY":"0.00016540","MEAN_MOTION_DDOT":"0.0000000000000","SITE":"AFETR","OBJECT_NAME":"STARLINK-1350","GP_ID":"200227416","REF_FRAME":"TEME","APOAPSIS":"548.335","ELEMENT_SET_NO":"999","RCS_SIZE":"LARGE","DECAY_DATE":null,"PERIOD":"95.592","FILE":"3383353","OBJECT_TYPE":"PAYLOAD","NORAD_CAT_ID":"45535","OBJECT_ID":"2020-025E","COUNTRY_CODE":"US","BSTAR":"0.00010782000000","MEAN_ELEMENT_THEORY":"SGP4","INCLINATION":"53.0517","CLASSIFICATION_TYPE":"U","MEAN_ANOMALY":"298.4552","SEMIMAJOR_AXIS":"6925.325","TLE_LINE2":"2 45535  53.0517  83.3687 0001654  61.6604 298.4552 15.06407809108317","TLE_LINE1":"1 45535U 20025E   22091.39613530  .00001325  00000-0  10782-3 0  9997","LAUNCH_DATE":"2020-04-22","TIME_SYSTEM":"UTC","MEAN_MOTION":"15.06407809","CENTER_NAME":"EARTH"},{"TLE_LINE1":"1 45536U 20025F   22091.66521086  .00006902  00000-0  48165-3 0  9994","LAUNCH_DATE":"2020-04-22","TIME_SYSTEM":"UTC","MEAN_MOTION":"15.06412638","CENTER_NAME":"EARTH","TLE_LINE2":"2 45536  53.0535  82.1578 0001739  59.9807 300.1354 15.06412638108343","SEMIMAJOR_AXIS":"6925.310","CLASSIFICATION_TYPE":"U","MEAN_ANOMALY":"300.1354","INCLINATION":"53.0535","COUNTRY_CODE":"US","BSTAR":"0.00048165000000","MEAN_ELEMENT_THEORY":"SGP4","OBJECT_ID":"2020-025F","NORAD_CAT_ID":"45536","PERIOD":"95.591","FILE":"3383778","OBJECT_TYPE":"PAYLOAD","ELEMENT_SET_NO":"999","RCS_SIZE":"LARGE","DECAY_DATE":null,"APOAPSIS":"548.379","REF_FRAME":"TEME","GP_ID":"200260948","OBJECT_NAME":"STARLINK-1352","MEAN_MOTION_DDOT":"0.0000000000000","SITE":"AFETR","REV_AT_EPOCH":"10834","EPOCH":"2022-04-01T15:57:54.218304","RA_OF_ASC_NODE":"82.1578","ARG_OF_PERICENTER":"59.9807","EPHEMERIS_TYPE":"0","ECCENTRICITY":"0.00017390","PERIAPSIS":"545.971","MEAN_MOTION_DOT":"0.00006902"},{"APOAPSIS":"509.375","REF_FRAME":"TEME","ELEMENT_SET_NO":"999","RCS_SIZE":"LARGE","DECAY_DATE":null,"REV_AT_EPOCH":"10879","EPOCH":"2022-04-01T08:29:29.223744","RA_OF_ASC_NODE":"46.6963","ARG_OF_PERICENTER":"103.9035","ECCENTRICITY":"0.00034100","EPHEMERIS_TYPE":"0","PERIAPSIS":"504.679","MEAN_MOTION_DOT":"0.00051832","OBJECT_NAME":"STARLINK-1353","GP_ID":"200228403","MEAN_MOTION_DDOT":"0.0000000000000","SITE":"AFETR","SEMIMAJOR_AXIS":"6885.162","CLASSIFICATION_TYPE":"U","MEAN_ANOMALY":"256.2338","TLE_LINE1":"1 45537U 20025G   22091.35381046  .00051832  00000-0  24013-2 0  9998","LAUNCH_DATE":"2020-04-22","TIME_SYSTEM":"UTC","MEAN_MOTION":"15.19607874","CENTER_NAME":"EARTH","TLE_LINE2":"2 45537  53.0027  46.6963 0003410 103.9035 256.2338 15.19607874108798","NORAD_CAT_ID":"45537","OBJECT_ID":"2020-025G","PERIOD":"94.761","FILE":"3383353","OBJECT_TYPE":"PAYLOAD","INCLINATION":"53.0027","COUNTRY_CODE":"US","BSTAR":"0.00240130000000","MEAN_ELEMENT_THEORY":"SGP4"},{"MEAN_MOTION_DOT":"0.00003608","PERIAPSIS":"546.103","RA_OF_ASC_NODE":"81.7466","EPOCH":"2022-04-01T18:10:35.492736","REV_AT_EPOCH":"10836","ECCENTRICITY":"0.00015370","EPHEMERIS_TYPE":"0","ARG_OF_PERICENTER":"62.8613","MEAN_MOTION_DDOT":"0.0000000000000","SITE":"AFETR","OBJECT_NAME":"STARLINK-1362","GP_ID":"200261943","REF_FRAME":"TEME","APOAPSIS":"548.231","RCS_SIZE":"LARGE","ELEMENT_SET_NO":"999","DECAY_DATE":null,"PERIOD":"95.591","OBJECT_TYPE":"PAYLOAD","FILE":"3383778","OBJECT_ID":"2020-025H","NORAD_CAT_ID":"45538","COUNTRY_CODE":"US","BSTAR":"0.00026091000000","MEAN_ELEMENT_THEORY":"SGP4","INCLINATION":"53.0538","CLASSIFICATION_TYPE":"U","MEAN_ANOMALY":"297.2532","SEMIMAJOR_AXIS":"6925.302","TLE_LINE2":"2 45538  53.0538  81.7466 0001537  62.8613 297.2532 15.06415173108366","LAUNCH_DATE":"2020-04-22","TLE_LINE1":"1 45538U 20025H   22091.75735524  .00003608  00000-0  26091-3 0  9994","MEAN_MOTION":"15.06415173","CENTER_NAME":"EARTH","TIME_SYSTEM":"UTC"},{"MEAN_MOTION_DDOT":"0.0000000000000","SITE":"AFETR","OBJECT_NAME":"STARLINK-1367","GP_ID":"200260699","PERIAPSIS":"333.459","MEAN_MOTION_DOT":"0.00006631","EPOCH":"2022-04-01T20:32:48.992640","RA_OF_ASC_NODE":"277.8783","REV_AT_EPOCH":"11064","ECCENTRICITY":"0.00091380","EPHEMERIS_TYPE":"0","ARG_OF_PERICENTER":"284.2367","RCS_SIZE":"LARGE","ELEMENT_SET_NO":"999","DECAY_DATE":null,"REF_FRAME":"TEME","APOAPSIS":"345.736","COUNTRY_CODE":"US","BSTAR":"0.00004437000000","MEAN_ELEMENT_THEORY":"SGP4","INCLINATION":"53.0454","PERIOD":"91.326","OBJECT_TYPE":"PAYLOAD","FILE":"3383778","NORAD_CAT_ID":"45539","OBJECT_ID":"2020-025J","TLE_LINE2":"2 45539  53.0454 277.8783 0009138 284.2367  75.7637 15.76771297110643","LAUNCH_DATE":"2020-04-22","TLE_LINE1":"1 45539U 20025J   22091.85612260  .00006631  00000-0  44370-4 0  9997","MEAN_MOTION":"15.76771297","CENTER_NAME":"EARTH","TIME_SYSTEM":"UTC","CLASSIFICATION_TYPE":"U","MEAN_ANOMALY":"75.7637","SEMIMAJOR_AXIS":"6717.732"}];
